start=new Date('2021-11-13T00:00:00.000Z').valueOf();
sats=[{"CLASSIFICATION_TYPE":"U","DECAY_DATE":null,"TLE_LINE1":"1 46137U 20057W   21316.89531432  .00000920  00000-0  80634-4 0  9999","ARG_OF_PERICENTER":"76.0180","OBJECT_ID":"2020-057W","FILE":"3213639","MEAN_ANOMALY":"284.0987","NORAD_CAT_ID":"46137","MEAN_ELEMENT_THEORY":"SGP4","RA_OF_ASC_NODE":"179.6095","REF_FRAME":"TEME","APOAPSIS":"548.326","TLE_LINE2":"2 46137  53.0528 179.6095 0001601  76.0180 284.0987 15.06398840 68537","MEAN_MOTION":"15.06398840","CENTER_NAME":"EARTH","TIME_SYSTEM":"UTC","REV_AT_EPOCH":"6853","COUNTRY_CODE":"US","MEAN_MOTION_DOT":"0.00000920","OBJECT_NAME":"STARLINK-1586","SITE":"AFETR","LAUNCH_DATE":"2020-08-18","GP_ID":"189643196","PERIOD":"95.592","BSTAR":"0.00008063400000","INCLINATION":"53.0528","SEMIMAJOR_AXIS":"6925.352","ELEMENT_SET_NO":"999","OBJECT_TYPE":"PAYLOAD","ECCENTRICITY":"0.00016010","EPOCH":"2021-11-12T21:29:15.157248","EPHEMERIS_TYPE":"0","PERIAPSIS":"546.108","MEAN_MOTION_DDOT":"0.0000000000000","RCS_SIZE":"LARGE"},{"BSTAR":"0.00000571610000","GP_ID":"189643945","PERIOD":"95.592","LAUNCH_DATE":"2020-08-18","SITE":"AFETR","OBJECT_NAME":"STARLINK-1590","RCS_SIZE":"LARGE","MEAN_MOTION_DDOT":"0.0000000000000","PERIAPSIS":"546.023","EPHEMERIS_TYPE":"0","EPOCH":"2021-11-12T23:02:09.211776","ECCENTRICITY":"0.00017280","OBJECT_TYPE":"PAYLOAD","ELEMENT_SET_NO":"999","INCLINATION":"53.0540","SEMIMAJOR_AXIS":"6925.355","NORAD_CAT_ID":"46138","MEAN_ANOMALY":"288.6454","FILE":"3213639","OBJECT_ID":"2020-057X","ARG_OF_PERICENTER":"71.4723","TLE_LINE1":"1 46138U 20057X   21316.95982884 -.00000196  00000-0  57161-5 0  9994","DECAY_DATE":null,"CLASSIFICATION_TYPE":"U","MEAN_MOTION_DOT":"-0.00000196","COUNTRY_CODE":"US","REV_AT_EPOCH":"6826","TIME_SYSTEM":"UTC","CENTER_NAME":"EARTH","TLE_LINE2":"2 46138  53.0540 199.3216 0001728  71.4723 288.6454 15.06398003 68268","MEAN_MOTION":"15.06398003","APOAPSIS":"548.416","RA_OF_ASC_NODE":"199.3216","REF_FRAME":"TEME","MEAN_ELEMENT_THEORY":"SGP4"},{"REF_FRAME":"TEME","RA_OF_ASC_NODE":"159.8099","APOAPSIS":"548.423","MEAN_ELEMENT_THEORY":"SGP4","REV_AT_EPOCH":"7007","COUNTRY_CODE":"US","MEAN_MOTION_DOT":"0.00000904","TLE_LINE2":"2 46140  53.0528 159.8099 0001725  73.5387 286.5792 15.06395135 70070","MEAN_MOTION":"15.06395135","CENTER_NAME":"EARTH","TIME_SYSTEM":"UTC","CLASSIFICATION_TYPE":"U","DECAY_DATE":null,"FILE":"3213639","MEAN_ANOMALY":"286.5792","NORAD_CAT_ID":"46140","TLE_LINE1":"1 46140U 20057Z   21316.85294027  .00000904  00000-0  79562-4 0  9995","OBJECT_ID":"2020-057Z","ARG_OF_PERICENTER":"73.5387","ELEMENT_SET_NO":"999","OBJECT_TYPE":"PAYLOAD","INCLINATION":"53.0528","SEMIMAJOR_AXIS":"6925.363","PERIAPSIS":"546.034","MEAN_MOTION_DDOT":"0.0000000000000","RCS_SIZE":"LARGE","ECCENTRICITY":"0.00017250","EPOCH":"2021-11-12T20:28:14.039328","EPHEMERIS_TYPE":"0","OBJECT_NAME":"STARLINK-1594","BSTAR":"0.00007956200000","SITE":"AFETR","PERIOD":"95.592","GP_ID":"189644184","LAUNCH_DATE":"2020-08-18"},{"ECCENTRICITY":"0.00015680","EPOCH":"2021-11-12T21:31:55.287552","EPHEMERIS_TYPE":"0","PERIAPSIS":"546.101","MEAN_MOTION_DDOT":"0.0000000000000","RCS_SIZE":"LARGE","SEMIMAJOR_AXIS":"6925.322","INCLINATION":"53.0527","OBJECT_TYPE":"PAYLOAD","ELEMENT_SET_NO":"999","SITE":"AFETR","GP_ID":"189644930","PERIOD":"95.592","LAUNCH_DATE":"2020-08-18","BSTAR":"-0.00010519000000","OBJECT_NAME":"STARLINK-1596","MEAN_MOTION":"15.06408538","TLE_LINE2":"2 46141  53.0527 159.6113 0001568  82.3594 277.7573 15.06408538 68818","CENTER_NAME":"EARTH","TIME_SYSTEM":"UTC","REV_AT_EPOCH":"6881","COUNTRY_CODE":"US","MEAN_MOTION_DOT":"-0.00001848","MEAN_ELEMENT_THEORY":"SGP4","REF_FRAME":"TEME","RA_OF_ASC_NODE":"159.6113","APOAPSIS":"548.273","TLE_LINE1":"1 46141U 20057AA  21316.89716768 -.00001848  00000-0 -10519-3 0  9997","OBJECT_ID":"2020-057AA","ARG_OF_PERICENTER":"82.3594","FILE":"3213639","NORAD_CAT_ID":"46141","MEAN_ANOMALY":"277.7573","CLASSIFICATION_TYPE":"U","DECAY_DATE":null},{"REV_AT_EPOCH":"6825","COUNTRY_CODE":"US","MEAN_MOTION_DOT":"-0.00000572","MEAN_MOTION":"15.06389587","TLE_LINE2":"2 46142  53.0557 199.5269 0001583  67.0146 293.1010 15.06389587 68255","CENTER_NAME":"EARTH","TIME_SYSTEM":"UTC","REF_FRAME":"TEME","RA_OF_ASC_NODE":"199.5269","APOAPSIS":"548.342","MEAN_ELEMENT_THEORY":"SGP4","FILE":"3213639","MEAN_ANOMALY":"293.1010","NORAD_CAT_ID":"46142","TLE_LINE1":"1 46142U 20057AB  21316.91560011 -.00000572  00000-0 -19482-4 0  9991","OBJECT_ID":"2020-057AB","ARG_OF_PERICENTER":"67.0146","CLASSIFICATION_TYPE":"U","DECAY_DATE":null,"PERIAPSIS":"546.149","MEAN_MOTION_DDOT":"0.0000000000000","RCS_SIZE":"LARGE","ECCENTRICITY":"0.00015830","EPOCH":"2021-11-12T21:58:27.849504","EPHEMERIS_TYPE":"0","OBJECT_TYPE":"PAYLOAD","ELEMENT_SET_NO":"999","INCLINATION":"53.0557","SEMIMAJOR_AXIS":"6925.380","BSTAR":"-0.00001948200000","SITE":"AFETR","GP_ID":"189643697","PERIOD":"95.593","LAUNCH_DATE":"2020-08-18","OBJECT_NAME":"STARLINK-1597"},{"OBJECT_NAME":"STARLINK-1599","LAUNCH_DATE":"2020-08-18","GP_ID":"189644446","PERIOD":"93.375","SITE":"AFETR","BSTAR":"-0.00000688440000","INCLINATION":"53.0546","SEMIMAJOR_AXIS":"6817.858","OBJECT_TYPE":"PAYLOAD","ELEMENT_SET_NO":"999","EPHEMERIS_TYPE":"0","EPOCH":"2021-11-12T20:59:44.880864","ECCENTRICITY":"0.00013720","RCS_SIZE":"LARGE","MEAN_MOTION_DDOT":"0.0000000000000","PERIAPSIS":"438.787","DECAY_DATE":null,"CLASSIFICATION_TYPE":"U","OBJECT_ID":"2020-057AC","ARG_OF_PERICENTER":"57.2155","TLE_LINE1":"1 46143U 20057AC  21316.87482501 -.00000711  00000-0 -68844-5 0  9996","NORAD_CAT_ID":"46143","MEAN_ANOMALY":"302.8982","FILE":"3213639","MEAN_ELEMENT_THEORY":"SGP4","APOAPSIS":"440.658","REF_FRAME":"TEME","RA_OF_ASC_NODE":"172.5785","TIME_SYSTEM":"UTC","CENTER_NAME":"EARTH","TLE_LINE2":"2 46143  53.0546 172.5785 0001372  57.2155 302.8982 15.42165117 68634","MEAN_MOTION":"15.42165117","MEAN_MOTION_DOT":"-0.00000711","COUNTRY_CODE":"US","REV_AT_EPOCH":"6863"},{"APOAPSIS":"548.518","REF_FRAME":"TEME","RA_OF_ASC_NODE":"179.6830","MEAN_ELEMENT_THEORY":"SGP4","MEAN_MOTION_DOT":"-0.00001008","COUNTRY_CODE":"US","REV_AT_EPOCH":"5678","TIME_SYSTEM":"UTC","CENTER_NAME":"EARTH","TLE_LINE2":"2 46144  53.0532 179.6830 0001897  69.0853 291.0339 15.06402954 56788","MEAN_MOTION":"15.06402954","DECAY_DATE":null,"CLASSIFICATION_TYPE":"U","NORAD_CAT_ID":"46144","MEAN_ANOMALY":"291.0339","FILE":"3213639","OBJECT_ID":"2020-057AD","ARG_OF_PERICENTER":"69.0853","TLE_LINE1":"1 46144U 20057AD  21316.88059151 -.00001008  00000-0 -48780-4 0  9995","OBJECT_TYPE":"PAYLOAD","ELEMENT_SET_NO":"999","INCLINATION":"53.0532","SEMIMAJOR_AXIS":"6925.340","RCS_SIZE":"LARGE","MEAN_MOTION_DDOT":"0.0000000000000","PERIAPSIS":"545.891","EPHEMERIS_TYPE":"0","EPOCH":"2021-11-12T21:08:03.106464","ECCENTRICITY":"0.00018970","OBJECT_NAME":"STARLINK-1606","BSTAR":"-0.00004878000000","LAUNCH_DATE":"2020-08-18","GP_ID":"189644685","PERIOD":"95.592","SITE":"AFETR"},{"FILE":"3213639","MEAN_ANOMALY":"281.1777","NORAD_CAT_ID":"46146","ARG_OF_PERICENTER":"78.9389","OBJECT_ID":"2020-057AF","TLE_LINE1":"1 46146U 20057AF  21316.86031477 -.00000338  00000-0 -37667-5 0  9994","CLASSIFICATION_TYPE":"U","DECAY_DATE":null,"REV_AT_EPOCH":"6825","MEAN_MOTION_DOT":"-0.00000338","COUNTRY_CODE":"US","CENTER_NAME":"EARTH","MEAN_MOTION":"15.06389682","TLE_LINE2":"2 46146  53.0528 199.7781 0001570  78.9389 281.1777 15.06389682 68257","TIME_SYSTEM":"UTC","REF_FRAME":"TEME","RA_OF_ASC_NODE":"199.7781","APOAPSIS":"548.332","MEAN_ELEMENT_THEORY":"SGP4","BSTAR":"-0.00000376670000","SITE":"AFETR","GP_ID":"189645431","LAUNCH_DATE":"2020-08-18","PERIOD":"95.593","OBJECT_NAME":"STARLINK-1608","PERIAPSIS":"546.158","RCS_SIZE":"LARGE","MEAN_MOTION_DDOT":"0.0000000000000","ECCENTRICITY":"0.00015700","EPHEMERIS_TYPE":"0","EPOCH":"2021-11-12T20:38:51.196128","OBJECT_TYPE":"PAYLOAD","ELEMENT_SET_NO":"999","SEMIMAJOR_AXIS":"6925.380","INCLINATION":"53.0528"},{"OBJECT_NAME":"STARLINK-1611","SITE":"AFETR","PERIOD":"95.593","GP_ID":"189643197","LAUNCH_DATE":"2020-08-18","BSTAR":"0.00000089404000","SEMIMAJOR_AXIS":"6925.377","INCLINATION":"53.0525","ELEMENT_SET_NO":"999","OBJECT_TYPE":"PAYLOAD","ECCENTRICITY":"0.00016200","EPHEMERIS_TYPE":"0","EPOCH":"2021-11-12T21:47:51.262944","PERIAPSIS":"546.120","RCS_SIZE":"LARGE","MEAN_MOTION_DDOT":"0.0000000000000","CLASSIFICATION_TYPE":"U","DECAY_DATE":null,"ARG_OF_PERICENTER":"73.6584","OBJECT_ID":"2020-057AG","TLE_LINE1":"1 46147U 20057AG  21316.90823221 -.00000268  00000-0  89404-6 0  9994","FILE":"3213639","NORAD_CAT_ID":"46147","MEAN_ANOMALY":"286.4583","MEAN_ELEMENT_THEORY":"SGP4","REF_FRAME":"TEME","RA_OF_ASC_NODE":"199.5580","APOAPSIS":"548.364","CENTER_NAME":"EARTH","TLE_LINE2":"2 46147  53.0525 199.5580 0001620  73.6584 286.4583 15.06390716 69518","MEAN_MOTION":"15.06390716","TIME_SYSTEM":"UTC","REV_AT_EPOCH":"6951","MEAN_MOTION_DOT":"-0.00000268","COUNTRY_CODE":"US"},{"OBJECT_NAME":"STARLINK-1616","SITE":"AFETR","GP_ID":"189643946","PERIOD":"95.593","LAUNCH_DATE":"2020-08-18","BSTAR":"0.00004763800000","SEMIMAJOR_AXIS":"6925.368","INCLINATION":"53.0528","OBJECT_TYPE":"PAYLOAD","ELEMENT_SET_NO":"999","ECCENTRICITY":"0.00015650","EPHEMERIS_TYPE":"0","EPOCH":"2021-11-12T21:55:48.409536","PERIAPSIS":"546.149","RCS_SIZE":"LARGE","MEAN_MOTION_DDOT":"0.0000000000000","CLASSIFICATION_TYPE":"U","DECAY_DATE":null,"ARG_OF_PERICENTER":"71.0142","OBJECT_ID":"2020-057AH","TLE_LINE1":"1 46148U 20057AH  21316.91375474  .00000428  00000-0  47638-4 0  9996","FILE":"3213639","NORAD_CAT_ID":"46148","MEAN_ANOMALY":"289.1017","MEAN_ELEMENT_THEORY":"SGP4","RA_OF_ASC_NODE":"179.5242","REF_FRAME":"TEME","APOAPSIS":"548.317","CENTER_NAME":"EARTH","TLE_LINE2":"2 46148  53.0528 179.5242 0001565  71.0142 289.1017 15.06393679 68539","MEAN_MOTION":"15.06393679","TIME_SYSTEM":"UTC","REV_AT_EPOCH":"6853","MEAN_MOTION_DOT":"0.00000428","COUNTRY_CODE":"US"}];
